norad_id,name,regime,epoch,line1,line2,inclination,eccentricity,mean_motion,raan,arg_pericenter,mean_anomaly
19789,COSMOS 1998,LEO,20280.36091372,1 19789U 89009E   20280.36091372 +.00000028 +00000-0 +91224-4 0 0001\,2 19789 082.6135 219.0150 0016384 344.0773 015.9802 12.6486612346107,82.6135,0.0016384,12.64866123,219.015,344.0773,15.9802
19789,COSMOS 1998,LEO,20281.23100503,1 19789U 89009E   20281.23100503 +.00000030 +00000-0 +10189-3 0 0001\,2 19789 082.6137 218.4600 0016344 342.0634 017.9879 12.6486612546118,82.6137,0.0016344,12.64866125,218.46,342.0634,17.9879
19789,COSMOS 1998,LEO,20281.78469949,1 19789U 89009E   20281.78469949  .00000028  00000-0  94548-4 0  5360\,2 19789  82.6137 218.1067 0016321 340.7960  19.2516 12.64866143461433,82.6137,0.0016321,12.64866143,218.1067,340.796,19.2516
19789,COSMOS 1998,LEO,20281.86379869,1 19789U 89009E   20281.86379869 +.00000026 +00000-0 +83644-4 0 0001\,2 19789 082.6138 218.0563 0016317 340.6113 019.4357 12.6486613946126,82.6138,0.0016317,12.64866139,218.0563,340.6113,19.4357
19789,COSMOS 1998,LEO,20282.57569137,1 19789U 89009E   20282.57569137 +.00000007 +00000-0 -17222-4 0 0001\,2 19789 082.6137 217.6024 0016296 338.8741 021.1677 12.6486608346135,82.6137,0.0016296,12.64866083,217.6024,338.8741,21.1677
19789,COSMOS 1998,LEO,20282.89208823,1 19789U 89009E   20282.89208823 +.00000007 +00000-0 -20424-4 0 0001\,2 19789 082.6137 217.4005 0016282 338.1507 021.8889 12.6486607546139,82.6137,0.0016282,12.64866075,217.4005,338.1507,21.8889
19789,COSMOS 1998,LEO,20283.28758451,1 19789U 89009E   20283.28758451 +.00000020 +00000-0 +52410-4 0 0001\,2 19789 082.6140 217.1480 0016260 337.3246 022.7127 12.6486611546144,82.614,0.001626,12.64866115,217.148,337.3246,22.7127
19789,COSMOS 1998,LEO,20284.07857639,1 19789U 89009E   20284.07857639  .00000007  00000-0 -18745-4 0  5376\,2 19789  82.6139 216.6436 0016237 335.3820  24.6496 12.64866076461723,82.6139,0.0016237,12.64866076,216.6436,335.382,24.6496
19789,COSMOS 1998,LEO,20284.15767564,1 19789U 89009E   20284.15767564 +.00000006 +00000-0 -24297-4 0 0001\,2 19789 082.6139 216.5932 0016232 335.1960 024.8350 12.6486606346155,82.6139,0.0016232,12.64866063,216.5932,335.196,24.835
19789,COSMOS 1998,LEO,20284.86956860,1 19789U 89009E   20284.86956860 +.00000014 +00000-0 +19257-4 0 0001\,2 19789 082.6142 216.1388 0016194 333.6594 026.3674 12.6486618146164,82.6142,0.0016194,12.64866181,216.1388,333.6594,26.3674
19789,COSMOS 1998,LEO,20285.50236226,1 19789U 89009E   20285.50236226 +.00000014 +00000-0 +18101-4 0 0001\,2 19789 082.6143 215.7352 0016162 332.2152 027.8076 12.6486619646172,82.6143,0.0016162,12.64866196,215.7352,332.2152,27.8076
19789,COSMOS 1998,LEO,20285.89785828,1 19789U 89009E   20285.89785828 +.00000009 +00000-0 -69693-5 0 0001\,2 19789 082.6143 215.4829 0016146 331.2933 028.7270 12.6486620346177,82.6143,0.0016146,12.64866203,215.4829,331.2933,28.727
19789,COSMOS 1998,LEO,20286.29335436,1 19789U 89009E   20286.29335436  .00000005  00000-0 -30024-4 0  5381\,2 19789  82.6144 215.2306 0016132 330.3576  29.6601 12.64866188462006,82.6144,0.0016132,12.64866188,215.2306,330.3576,29.6601
19789,COSMOS 1998,LEO,20286.92614804,1 19789U 89009E   20286.92614804 +.00000001 +00000-0 -49633-4 0 0001\,2 19789 082.6145 214.8270 0016106 328.8775 031.1362 12.6486619746190,82.6145,0.0016106,12.64866197,214.827,328.8775,31.1362
19789,COSMOS 1998,LEO,20287.32164413,1 19789U 89009E   20287.32164413 +.00000001 +00000-0 -52412-4 0 0539\,2 19789 082.6145 214.5747 0016092 327.9445 032.0667 12.6486619246213,82.6145,0.0016092,12.64866192,214.5747,327.9445,32.0667
19789,COSMOS 1998,LEO,20287.79623944,1 19789U 89009E   20287.79623944 -.00000000 +00000-0 -57806-4 0 0001\,2 19789 082.6145 214.2720 0016072 326.8407 033.1677 12.6486618646201,82.6145,0.0016072,12.64866186,214.272,326.8407,33.1677
19789,COSMOS 1998,LEO,20288.27083477,1 19789U 89009E   20288.27083477 -.00000002 +00000-0 -65558-4 0 0001\,2 19789 082.6145 213.9693 0016054 325.7177 034.2878 12.6486616846207,82.6145,0.0016054,12.64866168,213.9693,325.7177,34.2878
19789,COSMOS 1998,LEO,20288.90362859,1 19789U 89009E   20288.90362859 -.00000006 +00000-0 -88685-4 0 0001\,2 19789 082.6145 213.5657 0016027 324.2518 035.7500 12.6486614646215,82.6145,0.0016027,12.64866146,213.5657,324.2518,35.75
19789,COSMOS 1998,LEO,20289.53642245,1 19789U 89009E   20289.53642245 -.00000001 +00000-0 -62698-4 0 0001\,2 19789 082.6146 213.1621 0016003 322.7813 037.2170 12.6486614046223,82.6146,0.0016003,12.6486614,213.1621,322.7813,37.217
19789,COSMOS 1998,LEO,20290.48561333,1 19789U 89009E   20290.48561333  .00000009  00000-0 -86460-5 0  5418\,2 19789  82.6146 212.5568 0015979 320.4861  39.5066 12.64866148462532,82.6146,0.0015979,12.64866148,212.5568,320.4861,39.5066
19789,COSMOS 1998,LEO,20290.88110945,1 19789U 89009E   20290.88110945 +.00000010 +00000-0 -16156-5 0 0001\,2 19789 082.6146 212.3046 0015966 319.5467 040.4437 12.6486616746240,82.6146,0.0015966,12.64866167,212.3046,319.5467,40.4437
19789,COSMOS 1998,LEO,20291.19750645,1 19789U 89009E   20291.19750645 +.00000009 +00000-0 -92904-5 0 0001\,2 19789 082.6148 212.1026 0015937 318.8792 041.1099 12.6486611946244,82.6148,0.0015937,12.64866119,212.1026,318.8792,41.1099
19789,COSMOS 1998,LEO,20291.75120114,1 19789U 89009E   20291.75120114 +.00000013 +00000-0 +11929-4 0 0001\,2 19789 082.6148 211.7495 0015918 317.5707 042.4155 12.6486612746251,82.6148,0.0015918,12.64866127,211.7495,317.5707,42.4155
19789,COSMOS 1998,LEO,20292.22579661,1 19789U 89009E   20292.22579661 +.00000019 +00000-0 +47617-4 0 0001\,2 19789 082.6149 211.4468 0015901 316.4464 043.5372 12.6486613146257,82.6149,0.0015901,12.64866131,211.4468,316.4464,43.5372
19789,COSMOS 1998,LEO,20292.85859054,1 19789U 89009E   20292.85859054  .00000022  00000-0  59907-4 0  5421\,2 19789  82.6149 211.0432 0015877 314.9555  45.0249 12.64866132462835,82.6149,0.0015877,12.64866132,211.0432,314.9555,45.0249
19789,COSMOS 1998,LEO,20293.25408678,1 19789U 89009E   20293.25408678 +.00000024 +00000-0 +73249-4 0 0001\,2 19789 082.6149 210.7909 0015864 314.0157 045.9628 12.6486613646270,82.6149,0.0015864,12.64866136,210.7909,314.0157,45.9628
19789,COSMOS 1998,LEO,20294.51967473,1 19789U 89009E   20294.51967473 +.00000030 +00000-0 +10597-3 0 0001\,2 19789 082.6150 209.9837 0015821 311.0371 048.9354 12.6486616946286,82.615,0.0015821,12.64866169,209.9837,311.0371,48.9354
19789,COSMOS 1998,LEO,20294.67787323,1 19789U 89009E   20294.67787323 +.00000029 +00000-0 +99278-4 0 0548\,2 19789 082.6150 209.8828 0015816 310.6633 049.3084 12.6486616846306,82.615,0.0015816,12.64866168,209.8828,310.6633,49.3084
19789,COSMOS 1998,LEO,20295.23156792,1 19789U 89009E   20295.23156792 +.00000027 +00000-0 +89716-4 0 0001\,2 19789 082.6150 209.5297 0015801 309.3170 050.6521 12.6486617546295,82.615,0.0015801,12.64866175,209.5297,309.317,50.6521
19789,COSMOS 1998,LEO,20296.25985811,1 19789U 89009E   20296.25985811 +.00000021 +00000-0 +53798-4 0 0551\,2 19789 082.6151 208.8738 0015775 306.8535 053.1110 12.6486619646326,82.6151,0.0015775,12.64866196,208.8738,306.8535,53.111
19789,COSMOS 1998,LEO,20296.65535438,1 19789U 89009E   20296.65535438 +.00000018 +00000-0 +42275-4 0 0001\,2 19789 082.6151 208.6216 0015761 305.9164 054.0466 12.6486619646313,82.6151,0.0015761,12.64866196,208.6216,305.9164,54.0466
19789,COSMOS 1998,LEO,20297.44634689,1 19789U 89009E   20297.44634689 +.00000011 +00000-0 +45538-5 0 0001\,2 19789 082.6151 208.1171 0015732 304.0153 055.9445 12.6486617846323,82.6151,0.0015732,12.64866178,208.1171,304.0153,55.9445
19789,COSMOS 1998,LEO,20297.84184305,1 19789U 89009E   20297.84184305 +.00000011 +00000-0 +25483-5 0 0001\,2 19789 082.6151 207.8648 0015730 303.0433 056.9149 12.6486622446328,82.6151,0.001573,12.64866224,207.8648,303.0433,56.9149
19789,COSMOS 1998,LEO,20298.23733937,1 19789U 89009E   20298.23733937 +.00000006 +00000-0 -24418-4 0 0001\,2 19789 082.6152 207.6126 0015721 302.0931 057.8635 12.6486620246333,82.6152,0.0015721,12.64866202,207.6126,302.0931,57.8635
19789,COSMOS 1998,LEO,20298.87013341,1 19789U 89009E   20298.87013341 +.00000012 +00000-0 +59340-5 0 0001\,2 19789 082.6150 207.2090 0015734 300.5044 059.4495 12.6486617046341,82.615,0.0015734,12.6486617,207.209,300.5044,59.4495
19789,COSMOS 1998,LEO,20299.50292747,1 19789U 89009E   20299.50292747  .00000003  00000-0 -43334-4 0  5551\,2 19789  82.6151 206.8054 0015695 299.0526  60.8994 12.64866214463675,82.6151,0.0015695,12.64866214,206.8054,299.0526,60.8994
19789,COSMOS 1998,LEO,20299.81932458,1 19789U 89009E   20299.81932458 -.00000002 +00000-0 -70015-4 0 0001\,2 19789 082.6151 206.6036 0015679 298.3163 061.6347 12.6486618946353,82.6151,0.0015679,12.64866189,206.6036,298.3163,61.6347
19789,COSMOS 1998,LEO,20300.21482105,1 19789U 89009E   20300.21482105 +.00000011 +00000-0 +12594-5 0 0001\,2 19789 082.6150 206.3513 0015690 297.3050 062.6445 12.6486615846358,82.615,0.001569,12.64866158,206.3513,297.305,62.6445
19789,COSMOS 1998,LEO,20300.68941652,1 19789U 89009E   20300.68941652 -.00000002 +00000-0 -67046-4 0 0001\,2 19789 082.6151 206.0487 0015656 296.2299 063.7184 12.6486619646364,82.6151,0.0015656,12.64866196,206.0487,296.2299,63.7184
19789,COSMOS 1998,LEO,20301.48040931,1 19789U 89009E   20301.48040931 +.00000000 +00000-0 -57108-4 0 0001\,2 19789 082.6151 205.5442 0015630 294.3409 065.6052 12.6486618146374,82.6151,0.001563,12.64866181,205.5442,294.3409,65.6052
19789,COSMOS 1998,LEO,20301.79680643,1 19789U 89009E   20301.79680643 -.00000002 +00000-0 -66878-4 0 0557\,2 19789 082.6151 205.3424 0015629 293.5744 066.3707 12.6486616846396,82.6151,0.0015629,12.64866168,205.3424,293.5744,66.3707
19789,COSMOS 1998,LEO,20302.42960071,1 19789U 89009E   20302.42960071 +.00000001 +00000-0 -52094-4 0 0001\,2 19789 082.6151 204.9388 0015612 292.0582 067.8852 12.6486614146386,82.6151,0.0015612,12.64866141,204.9388,292.0582,67.8852
